*******************************************************************************
 Revised: Mar 27, 2009             Triton / (Neptune)                       801

 SATELLITE PHYSICAL PROPERTIES:
  Radius (km)             = 1352.6 +- 2.4   Density (g cm^-3)   = 2.054 +-0.032
  Mass (10^20 kg )        =  214.7 +- 0.7   Geometric Albedo    =  0.7  
                                            V(1,0)              = -1.24

 SATELLITE ORBITAL DATA:
  Semi-major axis, a (km) = 354.76(10^3)    Orbital period      = 5.876854 d (R)
  Eccentricity, e         =                 Rotational period   = Synchronous
  Inclination, i  (deg)   = 156.834

 Fit to all reported measurements through 2008, as described in AJ (2009).
*******************************************************************************
 
 
*******************************************************************************
Ephemeris / WWW_USER Fri Jun 19 18:52:51 2020 Pasadena, USA      / Horizons
*******************************************************************************
Target body name: Triton (801)                    {source: nep081xl}
Center body name: Solar System Barycenter (0)     {source: DE431mx}
Center-site name: BODY CENTER
*******************************************************************************
Start time      : A.D. 1969-Jun-28 00:00:00.0000 TDB
Stop  time      : A.D. 2071-May-04 00:00:00.0000 TDB
Step-size       : 7200 minutes
*******************************************************************************
Center geodetic : 0.00000000,0.00000000,0.0000000 {E-lon(deg),Lat(deg),Alt(km)}
Center cylindric: 0.00000000,0.00000000,0.0000000 {E-lon(deg),Dxy(km),Dz(km)}
Center radii    : (undefined)                                                  
Output units    : AU-D
Output type     : GEOMETRIC cartesian states
Output format   : 2 (position and velocity)
Reference frame : Ecliptic of J2000.0
*******************************************************************************
            JDTDB,            Calendar Date (TDB),        delta-T,                      X,                      Y,                      Z,                     VX,                     VY,                     VZ,
******************************************************************************************************************************************************************************************************************
$$SOE
2449675.500000000, A.D. 1994-Nov-19 00:00:00.0000,      61.182802,  1.168426139569398E+01, -2.781077565359688E+01,  3.043536058933710E-01,  3.231590054600837E-03,  3.155998769821909E-03,  1.521600168122229E-03,
2449680.500000000, A.D. 1994-Nov-24 00:00:00.0000,      61.182907,  1.169922124623921E+01, -2.780587604893920E+01,  3.022777721759079E-01,  1.263408558256317E-03,  2.000602726640163E-03,  1.710783837351217E-03,
2449685.500000000, A.D. 1994-Nov-29 00:00:00.0000,      61.183023,  1.171541926668262E+01, -2.779957706574302E+01,  3.007194274386706E-01,  6.093487019617011E-04,  2.203620660924110E-04,  4.286833706577993E-04,
2449690.500000000, A.D. 1994-Dec-04 00:00:00.0000,      61.183147,  1.173135804242117E+01, -2.779197572368682E+01,  3.005765508834096E-01,  1.802705136616537E-03, -7.301434404987704E-04, -1.278185207249640E-03,
2449695.500000000, A.D. 1994-Dec-09 00:00:00.0000,      61.183277,  1.174574928320389E+01, -2.778422615158185E+01,  3.015916765636740E-01,  3.868748341333101E-03, -7.366213406109031E-05, -2.016587426681218E-03,
2449700.500000000, A.D. 1994-Dec-14 00:00:00.0000,      61.183411,  1.175856543994743E+01, -2.777759743588915E+01,  3.025620030544881E-01,  5.120356988304277E-03,  1.655161615761981E-03, -1.183736063706970E-03,
2449705.500000000, A.D. 1994-Dec-19 00:00:00.0000,      61.183549,  1.177106217598766E+01, -2.777243751634953E+01,  3.023211828317586E-01,  4.535308954865219E-03,  3.046152292148228E-03,  5.405574886129902E-04,
2449710.500000000, A.D. 1994-Dec-24 00:00:00.0000,      61.183691,  1.178475327363002E+01, -2.776788906942576E+01,  3.006914171264025E-01,  2.590749086604041E-03,  2.964874862707075E-03,  1.748769596111983E-03,
2449715.500000000, A.D. 1994-Dec-29 00:00:00.0000,      61.183836,  1.180017484933764E+01, -2.776258939058899E+01,  2.986286384151466E-01,  8.736627584158658E-04,  1.478860446534913E-03,  1.454602832613495E-03,
2449720.500000000, A.D. 1995-Jan-03 00:00:00.0000,      61.183984,  1.181644773908313E+01, -2.775578295239412E+01,  2.974421863887702E-01,  7.852036714557312E-04, -1.974836795455796E-04, -1.018224439288954E-04,
2449725.500000000, A.D. 1995-Jan-08 00:00:00.0000,      61.184131,  1.183199531060926E+01, -2.774793821048459E+01,  2.977260159985567E-01,  2.396955624708578E-03, -6.944008535118241E-04, -1.650086876378027E-03,
2449730.500000000, A.D. 1995-Jan-13 00:00:00.0000,      61.184276,  1.184583048186975E+01, -2.774036518686631E+01,  2.988738904666551E-01,  4.392649495838699E-03,  3.950832972688109E-04, -1.926389458752489E-03,
2449735.500000000, A.D. 1995-Jan-18 00:00:00.0000,      61.184418,  1.185836147347901E+01, -2.773414603015397E+01,  2.995741689018400E-01,  5.142592704586201E-03,  2.182800001621202E-03, -7.051419579090872E-04,
2449740.500000000, A.D. 1995-Jan-23 00:00:00.0000,      61.184557,  1.187105853268523E+01, -2.772925150306224E+01,  2.988804662037063E-01,  4.034103716871224E-03,  3.210473033885087E-03,  1.016794518254080E-03,
2449745.500000000, A.D. 1995-Jan-28 00:00:00.0000,      61.184693,  1.188525367285059E+01, -2.772456479479156E+01,  2.969842043338782E-01,  1.971635976315180E-03,  2.640264011796449E-03,  1.833799199179725E-03,
2449750.500000000, A.D. 1995-Feb-02 00:00:00.0000,      61.184824,  1.190105327924864E+01, -2.771879327262625E+01,  2.950583998571532E-01,  6.384038802646231E-04,  9.388911954670654E-04,  1.078924803354205E-03,
2449755.500000000, A.D. 1995-Feb-07 00:00:00.0000,      61.184949,  1.191725134261481E+01, -2.771152383413411E+01,  2.943001198065641E-01,  1.122153562036295E-03, -5.034356487842426E-04, -6.316469430670978E-04,
2449760.500000000, A.D. 1995-Feb-12 00:00:00.0000,      61.185065,  1.193231405217363E+01, -2.770356014408705E+01,  2.949533645010540E-01,  3.027381530559862E-03, -5.079935899885405E-04, -1.901678703571956E-03,
2449765.500000000, A.D. 1995-Feb-17 00:00:00.0000,      61.185171,  1.194563183148833E+01, -2.769626658598042E+01,  2.961098880996045E-01,  4.798241271892480E-03,  9.302469847048931E-04, -1.694452188313272E-03,
2449770.500000000, A.D. 1995-Feb-22 00:00:00.0000,      61.185269,  1.195801693796108E+01, -2.769045440708441E+01,  2.964505157270697E-01,  4.988590673326450E-03,  2.638367707590239E-03, -1.790804064269918E-04,
2449775.500000000, A.D. 1995-Feb-27 00:00:00.0000,      61.185359,  1.197104034324570E+01, -2.768571935905606E+01,  2.953219733607732E-01,  3.442571569273125E-03,  3.223052940864440E-03,  1.407475936601340E-03,
2449780.500000000, A.D. 1995-Mar-04 00:00:00.0000,      61.185440,  1.198574925555948E+01, -2.768077167315652E+01,  2.932701857723181E-01,  1.421815115111456E-03,  2.208116442001209E-03,  1.770087528299447E-03,
2449785.500000000, A.D. 1995-Mar-09 00:00:00.0000,      61.185509,  1.200181223779637E+01, -2.767448904402008E+01,  2.915946704866462E-01,  5.754398266824834E-04,  4.233702128335558E-04,  6.127411058309294E-04,
2449790.500000000, A.D. 1995-Mar-14 00:00:00.0000,      61.185565,  1.201778988592519E+01, -2.766683290854030E+01,  2.912877335295512E-01,  1.593723315005279E-03, -6.729289240687870E-04, -1.119871882416976E-03,
2449795.500000000, A.D. 1995-Mar-19 00:00:00.0000,      61.185608,  1.203230989488486E+01, -2.765887991790304E+01,  2.922245110906880E-01,  3.644831846894896E-03, -1.845222026856760E-04, -2.013510724707610E-03,
2449800.500000000, A.D. 1995-Mar-24 00:00:00.0000,      61.185640,  1.204518725373005E+01, -2.765194303940602E+01,  2.932648496567690E-01,  5.053823349057147E-03,  1.491161604667094E-03, -1.338676013966449E-03,
2449805.500000000, A.D. 1995-Mar-29 00:00:00.0000,      61.185662,  1.205757526102677E+01, -2.764649963969600E+01,  2.931839471476824E-01,  4.669978062084521E-03,  2.987332329137437E-03,  3.538103880255977E-04,
2449810.500000000, A.D. 1995-Apr-03 00:00:00.0000,      61.185671,  1.207102399486780E+01, -2.764180170362838E+01,  2.916721601392508E-01,  2.806176697791080E-03,  3.083687739178947E-03,  1.682395996450457E-03,
2449815.500000000, A.D. 1995-Apr-08 00:00:00.0000,      61.185668,  1.208621489693305E+01, -2.763648647098917E+01,  2.895878080568404E-01,  9.834676704590093E-04,  1.702726078267128E-03,  1.562523404285642E-03,
2449820.500000000, A.D. 1995-Apr-13 00:00:00.0000,      61.185650,  1.210240450953904E+01, -2.762968903459904E+01,  2.882565382334056E-01,  6.892362108326333E-04, -2.691401328797442E-05,  9.203818207284117E-05,
2449825.500000000, A.D. 1995-Apr-18 00:00:00.0000,      61.185620,  1.211803151072318E+01, -2.762174845266352E+01,  2.883892121360806E-01,  2.163024832539799E-03, -6.919726889234531E-04, -1.528783783181988E-03,
2449830.500000000, A.D. 1995-Apr-23 00:00:00.0000,      61.185579,  1.213199125045189E+01, -2.761393095964750E+01,  2.895016782039679E-01,  4.201171953994609E-03,  2.517791494073357E-04, -1.976926211870124E-03,
2449835.500000000, A.D. 1995-Apr-28 00:00:00.0000,      61.185528,  1.214453746962034E+01, -2.760739628382266E+01,  2.903099072640412E-01,  5.139313006201835E-03,  2.035151511401978E-03, -8.865309283242035E-04,
2449840.500000000, A.D. 1995-May-03 00:00:00.0000,      61.185467,  1.215707513665850E+01, -2.760225080566397E+01,  2.897781043939646E-01,  4.211115495491463E-03,  3.203416446417508E-03,  8.523567359110295E-04,
2449845.500000000, A.D. 1995-May-08 00:00:00.0000,      61.185394,  1.217101347345919E+01, -2.759746065109162E+01,  2.879642410208773E-01,  2.173838377835423E-03,  2.803955027257947E-03,  1.820287143234818E-03,
